NAVSTAR 77 (USA 289)    
1 43873U 18109A   24255.60241108  .00000017  00000+0  00000+0 0  9990
2 43873  55.3286 117.6126 0030531 192.2695 351.6452  2.00559656 42163
